OBJECT_NAME,OBJECT_ID,EPOCH,MEAN_MOTION,ECCENTRICITY,INCLINATION,RA_OF_ASC_NODE,ARG_OF_PERICENTER,MEAN_ANOMALY,EPHEMERIS_TYPE,CLASSIFICATION_TYPE,NORAD_CAT_ID,ELEMENT_SET_NO,REV_AT_EPOCH,BSTAR,MEAN_MOTION_DOT,MEAN_MOTION_DDOT
PERSEUS-M1,2014-033AF,2026-05-10T02:24:58.847040,14.95501433,.0012921,97.9623,73.6169,66.8006,293.4573,0,U,40039,999,64494,.10455E-3,.1099E-4,0
POLYITAN-1,2014-033AJ,2026-05-10T01:15:05.911200,15.31954347,.0005357,98.0980,152.7448,279.9518,80.1116,0,U,40042,999,64775,.3813E-3,.11685E-3,0
TIGRISAT,2014-033AK,2026-05-09T21:53:50.069184,14.84998858,.0049041,97.7787,280.8161,198.6362,161.3059,0,U,40043,999,63994,.19745E-3,.1665E-4,0
AEROCUBE 6A,2014-033AM,2026-05-09T22:42:25.046208,14.97680276,.0040127,97.7210,297.3212,141.7751,218.6329,0,U,40045,999,64089,.46055E-3,.5424E-4,0
AEROCUBE 6B,2014-033AN,2026-05-10T04:27:05.352768,14.99107451,.003771,97.7178,297.2728,134.3733,226.0590,0,U,40046,999,64106,.34624E-3,.4209E-4,0
CANX-4,2014-034C,2026-05-10T04:29:59.476416,14.81193624,.0013772,98.3173,4.0978,129.4527,230.7905,0,U,40055,999,63890,.83001E-4,.589E-5,0
CANX-5,2014-034D,2026-05-10T02:51:05.368896,14.81210620,.0013757,98.3175,4.0678,129.8858,230.3565,0,U,40056,999,62970,.83766E-4,.596E-5,0
UKUBE-1,2014-037F,2026-05-09T22:45:02.340000,15.12943280,.0000538,98.4250,129.2239,41.1763,318.9506,0,U,40074,999,64277,.35039E-3,.6099E-4,0
BRITE-PL2 (HEWELIUSZ),2014-049B,2026-05-10T05:02:41.832096,14.94451944,.0012908,97.9055,241.9308,232.0210,127.9845,0,U,40119,999,63577,.11298E-3,.116E-4,0
AEROCUBE 5C,2015-058B,2026-05-10T03:34:33.981024,14.91236274,.012974,64.7689,20.9049,78.2292,283.3340,0,U,40965,999,35998,.2047E-3,.2219E-4,0
AEROCUBE 7,2015-058C,2026-05-09T23:39:06.196896,14.95427346,.0119548,64.7639,4.4442,76.9999,284.4431,0,U,40966,999,36024,.26619E-3,.3224E-4,0
FOX-1A (AO-85),2015-058D,2026-05-10T04:25:09.647616,14.90743615,.0128878,64.7765,37.0636,71.4965,290.0101,0,U,40967,999,10790,.20957E-3,.224E-4,0
SINOD-D 1,2015-058E,2026-05-10T02:26:29.046048,14.95605915,.0117372,64.7769,18.1528,68.3332,293.0233,0,U,40968,999,11096,.27153E-3,.3291E-4,0
SNAP-3 ALICE,2015-058G,2026-05-09T23:56:01.028832,15.53082236,.0032487,64.7528,235.1315,32.5814,327.7324,0,U,40970,999,11094,.84608E-3,.5459E-3,0
LMRST-SAT,2015-058H,2026-05-10T01:30:21.955104,14.90368903,.0130649,64.7771,33.7070,73.5620,287.9804,0,U,40971,999,10787,.21959E-3,.2342E-4,0
SNAP-3 EDDIE,2015-058J,2026-05-09T16:40:09.400800,15.54200684,.00329245,64.7445,227.1654,36.5602,323.7779,0,U,40972,999,11303,.82823835E-3,.55716E-3,0
PROPCUBE 3,2015-058K,2026-05-10T01:22:49.206144,14.93995937,.0122869,64.7704,11.6430,75.0914,286.3767,0,U,40973,999,10910,.24267E-3,.283E-4,0
BISONSAT,2015-058L,2026-05-09T19:58:51.824064,15.15414606,.00786093,64.7596,297.5648,63.9629,296.9561,0,U,40974,999,10980,.44309193E-3,.8892E-4,0
SNAP-3 JIMI,2015-058M,2026-05-09T23:21:57.280896,15.01905119,.0104842,64.7665,340.6407,71.1988,290.0468,0,U,40975,999,10848,.3218E-3,.4564E-4,0
PROPCUBE 1 (FLORA),2015-058N,2026-05-10T02:48:24.968160,14.89003808,.0129481,64.7756,53.2041,75.8208,285.7248,0,U,40976,999,11059,.21315E-3,.2176E-4,0
SINOD-D 3,2015-058P,2026-05-10T01:58:55.765632,14.93722665,.0117979,64.7740,34.7796,73.3437,288.0590,0,U,40977,999,10906,.2678E-3,.3082E-4,0
HORYU-4,2016-012D,2026-05-09T18:25:10.260768,15.77249913,.00058467,30.9893,356.5603,357.1247,2.9376,0,U,41340,999,56471,.74260398E-3,.129383E-2,0
RAVAN,2016-067B,2026-05-10T05:11:50.078976,15.51256775,.0007176,97.9939,15.5087,126.9234,233.2674,0,U,41849,999,52180,.49653E-3,.29078E-3,0
CELTEE 1,2016-067C,2026-05-10T03:27:10.243584,15.19306677,.0001926,98.0723,354.1180,62.3835,297.7593,0,U,41850,999,52010,.16875E-3,.3484E-4,0
OPTICUBE 04,2016-067D,2026-05-10T02:20:41.141760,15.09497243,.001436,98.0740,340.3907,244.5157,115.4585,0,U,41851,999,51942,.8739E-4,.1331E-4,0
AEROCUBE 8D,2016-067E,2026-05-10T03:24:48.349728,15.23865868,.0001865,98.0737,357.4262,263.7528,96.3495,0,U,41852,999,52027,.20366E-3,.4831E-4,0
AEROCUBE 8C,2016-067F,2026-05-10T04:09:29.492064,15.24102459,.0005265,98.0607,354.7371,176.1199,184.0078,0,U,41853,999,52027,.20648E-3,.4936E-4,0
CORVUS BC2,2017-042X,2026-05-09T23:51:41.103936,15.06051830,.0011941,97.4037,292.8445,239.4865,120.5185,0,U,42846,999,48131,.19245E-3,.2753E-4,0
CORVUS BC1,2017-042Y,2026-05-09T23:50:10.292352,15.06224214,.0011155,97.4071,293.6325,213.1691,146.8838,0,U,42847,999,48134,.19395E-3,.2788E-4,0
MAKERSAT 0,2017-073D,2026-05-10T03:33:39.523104,15.30482267,.0112141,97.4682,12.4083,49.1062,311.9827,0,U,43016,999,46064,.49544E-3,.17679E-3,0
