PERSEUS-M1              
1 40039U 14033AF  26130.10068110  .00001099  00000+0  10455-3 0  9992
2 40039  97.9623  73.6169 0012921  66.8006 293.4573 14.95501433644942
POLYITAN-1              
1 40042U 14033AJ  26130.05215175  .00011685  00000+0  38130-3 0  9997
2 40042  98.0980 152.7448 0005357 279.9518  80.1116 15.31954347647756
TIGRISAT                
1 40043U 14033AK  26129.91238506  .00001665  00000+0  19745-3 0  9992
2 40043  97.7787 280.8161 0049041 198.6362 161.3059 14.84998858639947
AEROCUBE 6A             
1 40045U 14033AM  26129.94612322  .00005424  00000+0  46055-3 0  9990
2 40045  97.7210 297.3212 0040127 141.7751 218.6329 14.97680276640895
AEROCUBE 6B             
1 40046U 14033AN  26130.18547862  .00004209  00000+0  34624-3 0  9994
2 40046  97.7178 297.2728 0037710 134.3733 226.0590 14.99107451641066
CANX-4                  
1 40055U 14034C   26130.18749394  .00000589  00000+0  83001-4 0  9990
2 40055  98.3173   4.0978 0013772 129.4527 230.7905 14.81193624638906
CANX-5                  
1 40056U 14034D   26130.11881214  .00000596  00000+0  83766-4 0  9998
2 40056  98.3175   4.0678 0013757 129.8858 230.3565 14.81210620629702
UKUBE-1                 
1 40074U 14037F   26129.94794375  .00006099  00000+0  35039-3 0  9994
2 40074  98.4250 129.2239 0000538  41.1763 318.9506 15.12943280642774
BRITE-PL2 (HEWELIUSZ)   
1 40119U 14049B   26130.21020639  .00001160  00000+0  11298-3 0  9999
2 40119  97.9055 241.9308 0012908 232.0210 127.9845 14.94451944635778
AEROCUBE 5C             
1 40965U 15058B   26130.14900441  .00002219  00000+0  20470-3 0  9997
2 40965  64.7689  20.9049 0129740  78.2292 283.3340 14.91236274359989
AEROCUBE 7              
1 40966U 15058C   26129.98548839  .00003224  00000+0  26619-3 0  9995
2 40966  64.7639   4.4442 0119548  76.9999 284.4431 14.95427346360243
FOX-1A (AO-85)          
1 40967U 15058D   26130.18413944  .00002240  00000+0  20957-3 0  9994
2 40967  64.7765  37.0636 0128878  71.4965 290.0101 14.90743615107904
SINOD-D 1               
1 40968U 15058E   26130.10172507  .00003291  00000+0  27153-3 0  9996
2 40968  64.7769  18.1528 0117372  68.3332 293.0233 14.95605915110963
SNAP-3 ALICE            
1 40970U 15058G   26129.99723413  .00054590  00000+0  84608-3 0  9998
2 40970  64.7528 235.1315 0032487  32.5814 327.7324 15.53082236110949
LMRST-SAT               
1 40971U 15058H   26130.06275411  .00002342  00000+0  21959-3 0  9997
2 40971  64.7771  33.7070 0130649  73.5620 287.9804 14.90368903107875
SNAP-3 EDDIE            
1 40972U 15058J   26129.69455325  .00055716  00000+0  82824-3 0  9990
2 40972  64.7445 227.1654 0032924  36.5602 323.7779 15.54200684113034
PROPCUBE 3              
1 40973U 15058K   26130.05751396  .00002830  00000+0  24267-3 0  9996
2 40973  64.7704  11.6430 0122869  75.0914 286.3767 14.93995937109101
BISONSAT                
1 40974U 15058L   26129.83254426  .00008892  00000+0  44309-3 0  9996
2 40974  64.7596 297.5648 0078609  63.9629 296.9561 15.15414606109808
SNAP-3 JIMI             
1 40975U 15058M   26129.97357964  .00004564  00000+0  32180-3 0  9999
2 40975  64.7665 340.6407 0104842  71.1988 290.0468 15.01905119108480
PROPCUBE 1 (FLORA)      
1 40976U 15058N   26130.11695565  .00002176  00000+0  21315-3 0  9995
2 40976  64.7756  53.2041 0129481  75.8208 285.7248 14.89003808110596
SINOD-D 3               
1 40977U 15058P   26130.08258988  .00003082  00000+0  26780-3 0  9994
2 40977  64.7740  34.7796 0117979  73.3437 288.0590 14.93722665109067
HORYU-4                 
1 41340U 16012D   26129.76747987  .00129383  00000+0  74260-3 0  9994
2 41340  30.9893 356.5603 0005846 357.1247   2.9376 15.77249913564714
RAVAN                   
1 41849U 16067B   26130.21655184  .00029078  00000+0  49653-3 0  9995
2 41849  97.9939  15.5087 0007176 126.9234 233.2674 15.51256775521805
CELTEE 1                
1 41850U 16067C   26130.14386856  .00003484  00000+0  16875-3 0  9999
2 41850  98.0723 354.1180 0001926  62.3835 297.7593 15.19306677520101
OPTICUBE 04             
1 41851U 16067D   26130.09769840  .00001331  00000+0  87390-4 0  9992
2 41851  98.0740 340.3907 0014360 244.5157 115.4585 15.09497243519421
AEROCUBE 8D             
1 41852U 16067E   26130.14222627  .00004831  00000+0  20366-3 0  9993
2 41852  98.0737 357.4262 0001865 263.7528  96.3495 15.23865868520272
AEROCUBE 8C             
1 41853U 16067F   26130.17325801  .00004936  00000+0  20648-3 0  9994
2 41853  98.0607 354.7371 0005265 176.1199 184.0078 15.24102459520272
CORVUS BC2              
1 42846U 17042X   26129.99422574  .00002753  00000+0  19245-3 0  9990
2 42846  97.4037 292.8445 0011941 239.4865 120.5185 15.06051830481311
CORVUS BC1              
1 42847U 17042Y   26129.99317468  .00002788  00000+0  19395-3 0  9990
2 42847  97.4071 293.6325 0011155 213.1691 146.8838 15.06224214481346
MAKERSAT 0              
1 43016U 17073D   26130.14837411  .00017679  00000+0  49544-3 0  9991
2 43016  97.4682  12.4083 0112141  49.1062 311.9827 15.30482267460641
